<?xml version="1.0" encoding="UTF-8"?>
<kml xmlns="http://www.opengis.net/kml/2.2">
  <Document>
    <name>Comptage CiCLABLE 2026</name>
    <description>Lieux sur lesquels auront lieu les comptages du 2 juin 2026. Les points restent à vérifier et modifier par les associations participantes. </description>
    <Style id="icon-1522-006064-normal">
      <IconStyle>
        <color>ff646000</color>
        <scale>1</scale>
        <Icon>
          <href>https://www.gstatic.com/mapspro/images/stock/503-wht-blank_maps.png</href>
        </Icon>
      </IconStyle>
      <LabelStyle>
        <scale>0</scale>
      </LabelStyle>
    </Style>
    <Style id="icon-1522-006064-highlight">
      <IconStyle>
        <color>ff646000</color>
        <scale>1</scale>
        <Icon>
          <href>https://www.gstatic.com/mapspro/images/stock/503-wht-blank_maps.png</href>
        </Icon>
      </IconStyle>
      <LabelStyle>
        <scale>1</scale>
      </LabelStyle>
    </Style>
    <StyleMap id="icon-1522-006064">
      <Pair>
        <key>normal</key>
        <styleUrl>#icon-1522-006064-normal</styleUrl>
      </Pair>
      <Pair>
        <key>highlight</key>
        <styleUrl>#icon-1522-006064-highlight</styleUrl>
      </Pair>
    </StyleMap>
    <Style id="icon-1522-006064-nodesc-normal">
      <IconStyle>
        <color>ff646000</color>
        <scale>1</scale>
        <Icon>
          <href>https://www.gstatic.com/mapspro/images/stock/503-wht-blank_maps.png</href>
        </Icon>
      </IconStyle>
      <LabelStyle>
        <scale>0</scale>
      </LabelStyle>
      <BalloonStyle>
        <text><![CDATA[<h3>$[name]</h3>]]></text>
      </BalloonStyle>
    </Style>
    <Style id="icon-1522-006064-nodesc-highlight">
      <IconStyle>
        <color>ff646000</color>
        <scale>1</scale>
        <Icon>
          <href>https://www.gstatic.com/mapspro/images/stock/503-wht-blank_maps.png</href>
        </Icon>
      </IconStyle>
      <LabelStyle>
        <scale>1</scale>
      </LabelStyle>
      <BalloonStyle>
        <text><![CDATA[<h3>$[name]</h3>]]></text>
      </BalloonStyle>
    </Style>
    <StyleMap id="icon-1522-006064-nodesc">
      <Pair>
        <key>normal</key>
        <styleUrl>#icon-1522-006064-nodesc-normal</styleUrl>
      </Pair>
      <Pair>
        <key>highlight</key>
        <styleUrl>#icon-1522-006064-nodesc-highlight</styleUrl>
      </Pair>
    </StyleMap>
    <Style id="icon-1522-0288D1-normal">
      <IconStyle>
        <color>ffd18802</color>
        <scale>1</scale>
        <Icon>
          <href>https://www.gstatic.com/mapspro/images/stock/503-wht-blank_maps.png</href>
        </Icon>
      </IconStyle>
      <LabelStyle>
        <scale>0</scale>
      </LabelStyle>
    </Style>
    <Style id="icon-1522-0288D1-highlight">
      <IconStyle>
        <color>ffd18802</color>
        <scale>1</scale>
        <Icon>
          <href>https://www.gstatic.com/mapspro/images/stock/503-wht-blank_maps.png</href>
        </Icon>
      </IconStyle>
      <LabelStyle>
        <scale>1</scale>
      </LabelStyle>
    </Style>
    <StyleMap id="icon-1522-0288D1">
      <Pair>
        <key>normal</key>
        <styleUrl>#icon-1522-0288D1-normal</styleUrl>
      </Pair>
      <Pair>
        <key>highlight</key>
        <styleUrl>#icon-1522-0288D1-highlight</styleUrl>
      </Pair>
    </StyleMap>
    <Style id="icon-1522-0288D1-labelson">
      <IconStyle>
        <color>ffd18802</color>
        <scale>1</scale>
        <Icon>
          <href>https://www.gstatic.com/mapspro/images/stock/503-wht-blank_maps.png</href>
        </Icon>
      </IconStyle>
    </Style>
    <Style id="icon-1522-0288D1-nodesc-normal">
      <IconStyle>
        <color>ffd18802</color>
        <scale>1</scale>
        <Icon>
          <href>https://www.gstatic.com/mapspro/images/stock/503-wht-blank_maps.png</href>
        </Icon>
      </IconStyle>
      <LabelStyle>
        <scale>0</scale>
      </LabelStyle>
      <BalloonStyle>
        <text><![CDATA[<h3>$[name]</h3>]]></text>
      </BalloonStyle>
    </Style>
    <Style id="icon-1522-0288D1-nodesc-highlight">
      <IconStyle>
        <color>ffd18802</color>
        <scale>1</scale>
        <Icon>
          <href>https://www.gstatic.com/mapspro/images/stock/503-wht-blank_maps.png</href>
        </Icon>
      </IconStyle>
      <LabelStyle>
        <scale>1</scale>
      </LabelStyle>
      <BalloonStyle>
        <text><![CDATA[<h3>$[name]</h3>]]></text>
      </BalloonStyle>
    </Style>
    <StyleMap id="icon-1522-0288D1-nodesc">
      <Pair>
        <key>normal</key>
        <styleUrl>#icon-1522-0288D1-nodesc-normal</styleUrl>
      </Pair>
      <Pair>
        <key>highlight</key>
        <styleUrl>#icon-1522-0288D1-nodesc-highlight</styleUrl>
      </Pair>
    </StyleMap>
    <Style id="icon-1522-097138-normal">
      <IconStyle>
        <color>ff387109</color>
        <scale>1</scale>
        <Icon>
          <href>https://www.gstatic.com/mapspro/images/stock/503-wht-blank_maps.png</href>
        </Icon>
      </IconStyle>
      <LabelStyle>
        <scale>0</scale>
      </LabelStyle>
    </Style>
    <Style id="icon-1522-097138-highlight">
      <IconStyle>
        <color>ff387109</color>
        <scale>1</scale>
        <Icon>
          <href>https://www.gstatic.com/mapspro/images/stock/503-wht-blank_maps.png</href>
        </Icon>
      </IconStyle>
      <LabelStyle>
        <scale>1</scale>
      </LabelStyle>
    </Style>
    <StyleMap id="icon-1522-097138">
      <Pair>
        <key>normal</key>
        <styleUrl>#icon-1522-097138-normal</styleUrl>
      </Pair>
      <Pair>
        <key>highlight</key>
        <styleUrl>#icon-1522-097138-highlight</styleUrl>
      </Pair>
    </StyleMap>
    <Style id="icon-1522-097138-nodesc-normal">
      <IconStyle>
        <color>ff387109</color>
        <scale>1</scale>
        <Icon>
          <href>https://www.gstatic.com/mapspro/images/stock/503-wht-blank_maps.png</href>
        </Icon>
      </IconStyle>
      <LabelStyle>
        <scale>0</scale>
      </LabelStyle>
      <BalloonStyle>
        <text><![CDATA[<h3>$[name]</h3>]]></text>
      </BalloonStyle>
    </Style>
    <Style id="icon-1522-097138-nodesc-highlight">
      <IconStyle>
        <color>ff387109</color>
        <scale>1</scale>
        <Icon>
          <href>https://www.gstatic.com/mapspro/images/stock/503-wht-blank_maps.png</href>
        </Icon>
      </IconStyle>
      <LabelStyle>
        <scale>1</scale>
      </LabelStyle>
      <BalloonStyle>
        <text><![CDATA[<h3>$[name]</h3>]]></text>
      </BalloonStyle>
    </Style>
    <StyleMap id="icon-1522-097138-nodesc">
      <Pair>
        <key>normal</key>
        <styleUrl>#icon-1522-097138-nodesc-normal</styleUrl>
      </Pair>
      <Pair>
        <key>highlight</key>
        <styleUrl>#icon-1522-097138-nodesc-highlight</styleUrl>
      </Pair>
    </StyleMap>
    <Style id="icon-1522-3949AB-nodesc-normal">
      <IconStyle>
        <color>ffab4939</color>
        <scale>1</scale>
        <Icon>
          <href>https://www.gstatic.com/mapspro/images/stock/503-wht-blank_maps.png</href>
        </Icon>
      </IconStyle>
      <LabelStyle>
        <scale>0</scale>
      </LabelStyle>
      <BalloonStyle>
        <text><![CDATA[<h3>$[name]</h3>]]></text>
      </BalloonStyle>
    </Style>
    <Style id="icon-1522-3949AB-nodesc-highlight">
      <IconStyle>
        <color>ffab4939</color>
        <scale>1</scale>
        <Icon>
          <href>https://www.gstatic.com/mapspro/images/stock/503-wht-blank_maps.png</href>
        </Icon>
      </IconStyle>
      <LabelStyle>
        <scale>1</scale>
      </LabelStyle>
      <BalloonStyle>
        <text><![CDATA[<h3>$[name]</h3>]]></text>
      </BalloonStyle>
    </Style>
    <StyleMap id="icon-1522-3949AB-nodesc">
      <Pair>
        <key>normal</key>
        <styleUrl>#icon-1522-3949AB-nodesc-normal</styleUrl>
      </Pair>
      <Pair>
        <key>highlight</key>
        <styleUrl>#icon-1522-3949AB-nodesc-highlight</styleUrl>
      </Pair>
    </StyleMap>
    <Style id="icon-1522-673AB7-nodesc-normal">
      <IconStyle>
        <color>ffb73a67</color>
        <scale>1</scale>
        <Icon>
          <href>https://www.gstatic.com/mapspro/images/stock/503-wht-blank_maps.png</href>
        </Icon>
      </IconStyle>
      <LabelStyle>
        <scale>0</scale>
      </LabelStyle>
      <BalloonStyle>
        <text><![CDATA[<h3>$[name]</h3>]]></text>
      </BalloonStyle>
    </Style>
    <Style id="icon-1522-673AB7-nodesc-highlight">
      <IconStyle>
        <color>ffb73a67</color>
        <scale>1</scale>
        <Icon>
          <href>https://www.gstatic.com/mapspro/images/stock/503-wht-blank_maps.png</href>
        </Icon>
      </IconStyle>
      <LabelStyle>
        <scale>1</scale>
      </LabelStyle>
      <BalloonStyle>
        <text><![CDATA[<h3>$[name]</h3>]]></text>
      </BalloonStyle>
    </Style>
    <StyleMap id="icon-1522-673AB7-nodesc">
      <Pair>
        <key>normal</key>
        <styleUrl>#icon-1522-673AB7-nodesc-normal</styleUrl>
      </Pair>
      <Pair>
        <key>highlight</key>
        <styleUrl>#icon-1522-673AB7-nodesc-highlight</styleUrl>
      </Pair>
    </StyleMap>
    <Style id="icon-1522-7CB342-normal">
      <IconStyle>
        <color>ff42b37c</color>
        <scale>1</scale>
        <Icon>
          <href>https://www.gstatic.com/mapspro/images/stock/503-wht-blank_maps.png</href>
        </Icon>
      </IconStyle>
      <LabelStyle>
        <scale>0</scale>
      </LabelStyle>
    </Style>
    <Style id="icon-1522-7CB342-highlight">
      <IconStyle>
        <color>ff42b37c</color>
        <scale>1</scale>
        <Icon>
          <href>https://www.gstatic.com/mapspro/images/stock/503-wht-blank_maps.png</href>
        </Icon>
      </IconStyle>
      <LabelStyle>
        <scale>1</scale>
      </LabelStyle>
    </Style>
    <StyleMap id="icon-1522-7CB342">
      <Pair>
        <key>normal</key>
        <styleUrl>#icon-1522-7CB342-normal</styleUrl>
      </Pair>
      <Pair>
        <key>highlight</key>
        <styleUrl>#icon-1522-7CB342-highlight</styleUrl>
      </Pair>
    </StyleMap>
    <Style id="icon-1522-7CB342-nodesc-normal">
      <IconStyle>
        <color>ff42b37c</color>
        <scale>1</scale>
        <Icon>
          <href>https://www.gstatic.com/mapspro/images/stock/503-wht-blank_maps.png</href>
        </Icon>
      </IconStyle>
      <LabelStyle>
        <scale>0</scale>
      </LabelStyle>
      <BalloonStyle>
        <text><![CDATA[<h3>$[name]</h3>]]></text>
      </BalloonStyle>
    </Style>
    <Style id="icon-1522-7CB342-nodesc-highlight">
      <IconStyle>
        <color>ff42b37c</color>
        <scale>1</scale>
        <Icon>
          <href>https://www.gstatic.com/mapspro/images/stock/503-wht-blank_maps.png</href>
        </Icon>
      </IconStyle>
      <LabelStyle>
        <scale>1</scale>
      </LabelStyle>
      <BalloonStyle>
        <text><![CDATA[<h3>$[name]</h3>]]></text>
      </BalloonStyle>
    </Style>
    <StyleMap id="icon-1522-7CB342-nodesc">
      <Pair>
        <key>normal</key>
        <styleUrl>#icon-1522-7CB342-nodesc-normal</styleUrl>
      </Pair>
      <Pair>
        <key>highlight</key>
        <styleUrl>#icon-1522-7CB342-nodesc-highlight</styleUrl>
      </Pair>
    </StyleMap>
    <Style id="icon-1522-9C27B0-nodesc-normal">
      <IconStyle>
        <color>ffb0279c</color>
        <scale>1</scale>
        <Icon>
          <href>https://www.gstatic.com/mapspro/images/stock/503-wht-blank_maps.png</href>
        </Icon>
      </IconStyle>
      <LabelStyle>
        <scale>0</scale>
      </LabelStyle>
      <BalloonStyle>
        <text><![CDATA[<h3>$[name]</h3>]]></text>
      </BalloonStyle>
    </Style>
    <Style id="icon-1522-9C27B0-nodesc-highlight">
      <IconStyle>
        <color>ffb0279c</color>
        <scale>1</scale>
        <Icon>
          <href>https://www.gstatic.com/mapspro/images/stock/503-wht-blank_maps.png</href>
        </Icon>
      </IconStyle>
      <LabelStyle>
        <scale>1</scale>
      </LabelStyle>
      <BalloonStyle>
        <text><![CDATA[<h3>$[name]</h3>]]></text>
      </BalloonStyle>
    </Style>
    <StyleMap id="icon-1522-9C27B0-nodesc">
      <Pair>
        <key>normal</key>
        <styleUrl>#icon-1522-9C27B0-nodesc-normal</styleUrl>
      </Pair>
      <Pair>
        <key>highlight</key>
        <styleUrl>#icon-1522-9C27B0-nodesc-highlight</styleUrl>
      </Pair>
    </StyleMap>
    <Style id="icon-1522-AFB42B-normal">
      <IconStyle>
        <color>ff2bb4af</color>
        <scale>1</scale>
        <Icon>
          <href>https://www.gstatic.com/mapspro/images/stock/503-wht-blank_maps.png</href>
        </Icon>
      </IconStyle>
      <LabelStyle>
        <scale>0</scale>
      </LabelStyle>
    </Style>
    <Style id="icon-1522-AFB42B-highlight">
      <IconStyle>
        <color>ff2bb4af</color>
        <scale>1</scale>
        <Icon>
          <href>https://www.gstatic.com/mapspro/images/stock/503-wht-blank_maps.png</href>
        </Icon>
      </IconStyle>
      <LabelStyle>
        <scale>1</scale>
      </LabelStyle>
    </Style>
    <StyleMap id="icon-1522-AFB42B">
      <Pair>
        <key>normal</key>
        <styleUrl>#icon-1522-AFB42B-normal</styleUrl>
      </Pair>
      <Pair>
        <key>highlight</key>
        <styleUrl>#icon-1522-AFB42B-highlight</styleUrl>
      </Pair>
    </StyleMap>
    <Style id="icon-1522-C2185B-normal">
      <IconStyle>
        <color>ff5b18c2</color>
        <scale>1</scale>
        <Icon>
          <href>https://www.gstatic.com/mapspro/images/stock/503-wht-blank_maps.png</href>
        </Icon>
      </IconStyle>
      <LabelStyle>
        <scale>0</scale>
      </LabelStyle>
    </Style>
    <Style id="icon-1522-C2185B-highlight">
      <IconStyle>
        <color>ff5b18c2</color>
        <scale>1</scale>
        <Icon>
          <href>https://www.gstatic.com/mapspro/images/stock/503-wht-blank_maps.png</href>
        </Icon>
      </IconStyle>
      <LabelStyle>
        <scale>1</scale>
      </LabelStyle>
    </Style>
    <StyleMap id="icon-1522-C2185B">
      <Pair>
        <key>normal</key>
        <styleUrl>#icon-1522-C2185B-normal</styleUrl>
      </Pair>
      <Pair>
        <key>highlight</key>
        <styleUrl>#icon-1522-C2185B-highlight</styleUrl>
      </Pair>
    </StyleMap>
    <Style id="icon-1522-C2185B-labelson">
      <IconStyle>
        <color>ff5b18c2</color>
        <scale>1</scale>
        <Icon>
          <href>https://www.gstatic.com/mapspro/images/stock/503-wht-blank_maps.png</href>
        </Icon>
      </IconStyle>
    </Style>
    <Style id="icon-1522-C2185B-labelson-nodesc">
      <IconStyle>
        <color>ff5b18c2</color>
        <scale>1</scale>
        <Icon>
          <href>https://www.gstatic.com/mapspro/images/stock/503-wht-blank_maps.png</href>
        </Icon>
      </IconStyle>
      <BalloonStyle>
        <text><![CDATA[<h3>$[name]</h3>]]></text>
      </BalloonStyle>
    </Style>
    <Style id="icon-1522-F9A825-nodesc-normal">
      <IconStyle>
        <color>ff25a8f9</color>
        <scale>1</scale>
        <Icon>
          <href>https://www.gstatic.com/mapspro/images/stock/503-wht-blank_maps.png</href>
        </Icon>
      </IconStyle>
      <LabelStyle>
        <scale>0</scale>
      </LabelStyle>
      <BalloonStyle>
        <text><![CDATA[<h3>$[name]</h3>]]></text>
      </BalloonStyle>
    </Style>
    <Style id="icon-1522-F9A825-nodesc-highlight">
      <IconStyle>
        <color>ff25a8f9</color>
        <scale>1</scale>
        <Icon>
          <href>https://www.gstatic.com/mapspro/images/stock/503-wht-blank_maps.png</href>
        </Icon>
      </IconStyle>
      <LabelStyle>
        <scale>1</scale>
      </LabelStyle>
      <BalloonStyle>
        <text><![CDATA[<h3>$[name]</h3>]]></text>
      </BalloonStyle>
    </Style>
    <StyleMap id="icon-1522-F9A825-nodesc">
      <Pair>
        <key>normal</key>
        <styleUrl>#icon-1522-F9A825-nodesc-normal</styleUrl>
      </Pair>
      <Pair>
        <key>highlight</key>
        <styleUrl>#icon-1522-F9A825-nodesc-highlight</styleUrl>
      </Pair>
    </StyleMap>
    <Style id="icon-1522-FF5252-labelson">
      <IconStyle>
        <color>ff5252ff</color>
        <scale>1</scale>
        <Icon>
          <href>https://www.gstatic.com/mapspro/images/stock/503-wht-blank_maps.png</href>
        </Icon>
      </IconStyle>
    </Style>
    <Style id="icon-1522-FFEA00-nodesc-normal">
      <IconStyle>
        <color>ff00eaff</color>
        <scale>1</scale>
        <Icon>
          <href>https://www.gstatic.com/mapspro/images/stock/503-wht-blank_maps.png</href>
        </Icon>
      </IconStyle>
      <LabelStyle>
        <scale>0</scale>
      </LabelStyle>
      <BalloonStyle>
        <text><![CDATA[<h3>$[name]</h3>]]></text>
      </BalloonStyle>
    </Style>
    <Style id="icon-1522-FFEA00-nodesc-highlight">
      <IconStyle>
        <color>ff00eaff</color>
        <scale>1</scale>
        <Icon>
          <href>https://www.gstatic.com/mapspro/images/stock/503-wht-blank_maps.png</href>
        </Icon>
      </IconStyle>
      <LabelStyle>
        <scale>1</scale>
      </LabelStyle>
      <BalloonStyle>
        <text><![CDATA[<h3>$[name]</h3>]]></text>
      </BalloonStyle>
    </Style>
    <StyleMap id="icon-1522-FFEA00-nodesc">
      <Pair>
        <key>normal</key>
        <styleUrl>#icon-1522-FFEA00-nodesc-normal</styleUrl>
      </Pair>
      <Pair>
        <key>highlight</key>
        <styleUrl>#icon-1522-FFEA00-nodesc-highlight</styleUrl>
      </Pair>
    </StyleMap>
    <Style id="icon-1594-0288D1-normal">
      <IconStyle>
        <color>ffd18802</color>
        <scale>1</scale>
        <Icon>
          <href>https://www.gstatic.com/mapspro/images/stock/503-wht-blank_maps.png</href>
        </Icon>
      </IconStyle>
      <LabelStyle>
        <scale>0</scale>
      </LabelStyle>
    </Style>
    <Style id="icon-1594-0288D1-highlight">
      <IconStyle>
        <color>ffd18802</color>
        <scale>1</scale>
        <Icon>
          <href>https://www.gstatic.com/mapspro/images/stock/503-wht-blank_maps.png</href>
        </Icon>
      </IconStyle>
      <LabelStyle>
        <scale>1</scale>
      </LabelStyle>
    </Style>
    <StyleMap id="icon-1594-0288D1">
      <Pair>
        <key>normal</key>
        <styleUrl>#icon-1594-0288D1-normal</styleUrl>
      </Pair>
      <Pair>
        <key>highlight</key>
        <styleUrl>#icon-1594-0288D1-highlight</styleUrl>
      </Pair>
    </StyleMap>
    <Style id="icon-1594-0288D1-nodesc-normal">
      <IconStyle>
        <color>ffd18802</color>
        <scale>1</scale>
        <Icon>
          <href>https://www.gstatic.com/mapspro/images/stock/503-wht-blank_maps.png</href>
        </Icon>
      </IconStyle>
      <LabelStyle>
        <scale>0</scale>
      </LabelStyle>
      <BalloonStyle>
        <text><![CDATA[<h3>$[name]</h3>]]></text>
      </BalloonStyle>
    </Style>
    <Style id="icon-1594-0288D1-nodesc-highlight">
      <IconStyle>
        <color>ffd18802</color>
        <scale>1</scale>
        <Icon>
          <href>https://www.gstatic.com/mapspro/images/stock/503-wht-blank_maps.png</href>
        </Icon>
      </IconStyle>
      <LabelStyle>
        <scale>1</scale>
      </LabelStyle>
      <BalloonStyle>
        <text><![CDATA[<h3>$[name]</h3>]]></text>
      </BalloonStyle>
    </Style>
    <StyleMap id="icon-1594-0288D1-nodesc">
      <Pair>
        <key>normal</key>
        <styleUrl>#icon-1594-0288D1-nodesc-normal</styleUrl>
      </Pair>
      <Pair>
        <key>highlight</key>
        <styleUrl>#icon-1594-0288D1-nodesc-highlight</styleUrl>
      </Pair>
    </StyleMap>
    <Folder>
      <name>EVAV</name>
      <Placemark>
        <name>Annemasse Agglo</name>
        <description>EVAV 2 pers</description>
        <styleUrl>#icon-1522-097138</styleUrl>
        <Point>
          <coordinates>
            6.2312626,46.1959787,0
          </coordinates>
        </Point>
      </Placemark>
      <Placemark>
        <name>Gaillard Moillesulaz
</name>
        <description>EVAV 2 pers</description>
        <styleUrl>#icon-1522-097138</styleUrl>
        <Point>
          <coordinates>
            6.2068732,46.1921605,0
          </coordinates>
        </Point>
      </Placemark>
      <Placemark>
        <name>Annemasse Clos Fleury
</name>
        <description>EVAV 2 pers</description>
        <styleUrl>#icon-1522-097138</styleUrl>
        <Point>
          <coordinates>
            6.2317462,46.192746,0
          </coordinates>
        </Point>
      </Placemark>
      <Placemark>
        <name>Gaillard Fossard</name>
        <description>EVAV 2 pers</description>
        <styleUrl>#icon-1522-097138</styleUrl>
        <Point>
          <coordinates>
            6.1954062,46.183636,0
          </coordinates>
        </Point>
      </Placemark>
      <Placemark>
        <name>Gaillard Pont Noir (voie verte)</name>
        <styleUrl>#icon-1522-097138-nodesc</styleUrl>
        <Point>
          <coordinates>
            6.2151068,46.1937188,0
          </coordinates>
        </Point>
      </Placemark>
      <Placemark>
        <name>Ambilly Jura (voie verte)
</name>
        <styleUrl>#icon-1522-097138-nodesc</styleUrl>
        <Point>
          <coordinates>
            6.224119,46.1944615,0
          </coordinates>
        </Point>
      </Placemark>
      <Placemark>
        <name>Point 7</name>
        <description>Intersection descente vallée verte</description>
        <styleUrl>#icon-1522-006064</styleUrl>
        <Point>
          <coordinates>
            6.3646824,46.1640381,0
          </coordinates>
        </Point>
      </Placemark>
      <Placemark>
        <name>Evian Débarcadère SGN</name>
        <description>compter aussi vélos dans les P dédiés</description>
        <styleUrl>#icon-1522-006064</styleUrl>
        <Point>
          <coordinates>
            6.5958943,46.4014128,0
          </coordinates>
        </Point>
      </Placemark>
    </Folder>
    <Folder>
      <name>APICY</name>
      <Placemark>
        <name>StGenis (CERN, Porte de France)</name>
        <description><![CDATA[description: 3 comptages:<br>- vers Meyrin <br>- vers CERN<br>- vers Bourginy<br>nom: StGenis (CERN, Porte de France)]]></description>
        <styleUrl>#icon-1522-FF5252-labelson</styleUrl>
        <ExtendedData>
          <Data name="description">
            <value>3 comptages:
- vers Meyrin 
- vers CERN
- vers Bourginy</value>
          </Data>
          <Data name="nom">
            <value>StGenis (CERN, Porte de France)</value>
          </Data>
        </ExtendedData>
        <Point>
          <coordinates>
            6.0346931,46.2392866,0
          </coordinates>
        </Point>
      </Placemark>
      <Placemark>
        <name><![CDATA[Challex->LaPlaine]]></name>
        <description><![CDATA[description: <br>nom: Challex-LaPlaine]]></description>
        <styleUrl>#icon-1522-FF5252-labelson</styleUrl>
        <ExtendedData>
          <Data name="description">
            <value/>
          </Data>
          <Data name="nom">
            <value>Challex-LaPlaine</value>
          </Data>
        </ExtendedData>
        <Point>
          <coordinates>
            5.9911789,46.1772767,0
          </coordinates>
        </Point>
      </Placemark>
      <Placemark>
        <name><![CDATA[Divonne->Chavanne]]></name>
        <description><![CDATA[description: <br>nom: Divonne->Chavanne]]></description>
        <styleUrl>#icon-1522-FF5252-labelson</styleUrl>
        <ExtendedData>
          <Data name="description">
            <value/>
          </Data>
          <Data name="nom">
            <value><![CDATA[Divonne->Chavanne]]></value>
          </Data>
        </ExtendedData>
        <Point>
          <coordinates>
            6.1519184,46.3459462,0
          </coordinates>
        </Point>
      </Placemark>
      <Placemark>
        <name>Ferney</name>
        <description><![CDATA[description: <br>nom: Ferney->Genève]]></description>
        <styleUrl>#icon-1522-FF5252-labelson</styleUrl>
        <ExtendedData>
          <Data name="description">
            <value/>
          </Data>
          <Data name="nom">
            <value><![CDATA[Ferney->Genève]]></value>
          </Data>
        </ExtendedData>
        <Point>
          <coordinates>
            6.1227232,46.2443451,0
          </coordinates>
        </Point>
      </Placemark>
      <Placemark>
        <name>Ferney-Vireloup</name>
        <description><![CDATA[description: Comptage dans les deux sens<br><br>nom: Ferney-Vireloup<br>]]></description>
        <styleUrl>#icon-1522-FF5252-labelson</styleUrl>
        <ExtendedData>
          <Data name="description">
            <value>Comptage dans les deux sens
</value>
          </Data>
          <Data name="nom">
            <value>Ferney-Vireloup
</value>
          </Data>
        </ExtendedData>
        <Point>
          <coordinates>
            6.1191427,46.2605964,0
          </coordinates>
        </Point>
      </Placemark>
      <Placemark>
        <name>Mategnin-Douane</name>
        <description><![CDATA[description: Entre les douanes suisses et français<br>nom: Mategnin-Douane]]></description>
        <styleUrl>#icon-1522-FF5252-labelson</styleUrl>
        <ExtendedData>
          <Data name="description">
            <value>Entre les douanes suisses et français</value>
          </Data>
          <Data name="nom">
            <value>Mategnin-Douane</value>
          </Data>
        </ExtendedData>
        <Point>
          <coordinates>
            6.0888201,46.2413531,0
          </coordinates>
        </Point>
      </Placemark>
      <Placemark>
        <name><![CDATA[Pougny->Chancy]]></name>
        <description><![CDATA[description: <br>nom: Pougny->Chancy]]></description>
        <styleUrl>#icon-1522-FF5252-labelson</styleUrl>
        <ExtendedData>
          <Data name="description">
            <value/>
          </Data>
          <Data name="nom">
            <value><![CDATA[Pougny->Chancy]]></value>
          </Data>
        </ExtendedData>
        <Point>
          <coordinates>
            5.9647337,46.1442561,0
          </coordinates>
        </Point>
      </Placemark>
      <Placemark>
        <name>StJean de Gonville/Challex</name>
        <description><![CDATA[description: <br>nom: StJean de Gonville/Challex<br>]]></description>
        <styleUrl>#icon-1522-FF5252-labelson</styleUrl>
        <ExtendedData>
          <Data name="description">
            <value/>
          </Data>
          <Data name="nom">
            <value>StJean de Gonville/Challex
</value>
          </Data>
        </ExtendedData>
        <Point>
          <coordinates>
            5.9883357,46.1965512,0
          </coordinates>
        </Point>
      </Placemark>
      <Placemark>
        <name>Versonnex</name>
        <description><![CDATA[description: - vers frontière <br>- piste forestière<br><br>nom: Versonnex]]></description>
        <styleUrl>#icon-1522-FF5252-labelson</styleUrl>
        <ExtendedData>
          <Data name="description">
            <value>- vers frontière 
- piste forestière
</value>
          </Data>
          <Data name="nom">
            <value>Versonnex</value>
          </Data>
        </ExtendedData>
        <Point>
          <coordinates>
            6.1044835,46.2869177,0
          </coordinates>
        </Point>
      </Placemark>
      <Placemark>
        <name>Sauverny</name>
        <description><![CDATA[description: Sauvergny<br>nom: Sauvergny]]></description>
        <styleUrl>#icon-1522-FF5252-labelson</styleUrl>
        <ExtendedData>
          <Data name="description">
            <value>Sauvergny</value>
          </Data>
          <Data name="nom">
            <value>Sauvergny</value>
          </Data>
        </ExtendedData>
        <Point>
          <coordinates>
            6.1200773,46.3116826,0
          </coordinates>
        </Point>
      </Placemark>
      <Placemark>
        <name>Mategnin-Anneaux</name>
        <description><![CDATA[description: Debut de la VV depuis rd pt des Annaux, en direction ver Mategnin<br>nom: Mategnin-Anneaux]]></description>
        <styleUrl>#icon-1522-FF5252-labelson</styleUrl>
        <ExtendedData>
          <Data name="description">
            <value>Debut de la VV depuis rd pt des Annaux, en direction ver Mategnin</value>
          </Data>
          <Data name="nom">
            <value>Mategnin-Anneaux</value>
          </Data>
        </ExtendedData>
        <Point>
          <coordinates>
            6.0819496,46.2458162,0
          </coordinates>
        </Point>
      </Placemark>
      <Placemark>
        <name>Crassier Voie verte</name>
        <description><![CDATA[description: ATE Vaud<br>nom: Voie verte Divonne]]></description>
        <styleUrl>#icon-1522-0288D1-labelson</styleUrl>
        <ExtendedData>
          <Data name="description">
            <value>ATE Vaud</value>
          </Data>
          <Data name="nom">
            <value>Voie verte Divonne</value>
          </Data>
        </ExtendedData>
        <Point>
          <coordinates>
            6.1648493,46.3726167,0
          </coordinates>
        </Point>
      </Placemark>
    </Folder>
    <Folder>
      <name>AERE</name>
      <Placemark>
        <name><![CDATA[REIGNIER_Giratoire d'Arthaz]]></name>
        <styleUrl>#icon-1522-FFEA00-nodesc</styleUrl>
        <Point>
          <coordinates>
            6.2682868,46.1454632,0
          </coordinates>
        </Point>
      </Placemark>
      <Placemark>
        <name>REIGNIER_Rte de Marsinge / Rte de Viaison</name>
        <styleUrl>#icon-1522-FFEA00-nodesc</styleUrl>
        <Point>
          <coordinates>
            6.2437207,46.1572031,0
          </coordinates>
        </Point>
      </Placemark>
      <Placemark>
        <name>ETREMBIERES_RD2 / RD906a (ex-PN93)</name>
        <styleUrl>#icon-1522-FFEA00-nodesc</styleUrl>
        <Point>
          <coordinates>
            6.2349567,46.1768974,0
          </coordinates>
        </Point>
      </Placemark>
      <Placemark>
        <name>ETREMBIERES_Rte de St-Julien / Rte du Salève</name>
        <styleUrl>#icon-1522-FFEA00-nodesc</styleUrl>
        <Point>
          <coordinates>
            6.2214353,46.175233,0
          </coordinates>
        </Point>
      </Placemark>
      <Placemark>
        <name>ARTHAZ_Giratoire lavomatique</name>
        <styleUrl>#icon-1522-FFEA00-nodesc</styleUrl>
        <Point>
          <coordinates>
            6.2761617,46.1622162,0
          </coordinates>
        </Point>
      </Placemark>
      <Placemark>
        <name>PERS-JUSSY_Giratoire Casino</name>
        <styleUrl>#icon-1522-FFEA00-nodesc</styleUrl>
        <Point>
          <coordinates>
            6.2693194,46.1209034,0
          </coordinates>
        </Point>
      </Placemark>
      <Placemark>
        <name><![CDATA[REIGNIER_Accès gare (Tour d'Yvoire)]]></name>
        <styleUrl>#icon-1522-FFEA00-nodesc</styleUrl>
        <Point>
          <coordinates>
            6.2662295,46.1263467,0
          </coordinates>
        </Point>
      </Placemark>
      <Placemark>
        <name>REIGNIER_Giratoire Eglise/Jonquilles</name>
        <styleUrl>#icon-1522-FFEA00-nodesc</styleUrl>
        <Point>
          <coordinates>
            6.2703494,46.1388528,0
          </coordinates>
        </Point>
      </Placemark>
      <Placemark>
        <name>REIGNIER_Giratoire de la Colline</name>
        <styleUrl>#icon-1522-FFEA00-nodesc</styleUrl>
        <Point>
          <coordinates>
            6.268032,46.1331431,0
          </coordinates>
        </Point>
      </Placemark>
    </Folder>
    <Folder>
      <name>Association Mobilité Douce Chablais</name>
      <Placemark>
        <name>Allinges / Thonon - Rond point des Fleysets</name>
        <styleUrl>#icon-1522-006064-nodesc</styleUrl>
        <Point>
          <coordinates>
            6.477102,46.352682,0
          </coordinates>
        </Point>
      </Placemark>
      <Placemark>
        <name>Anthy / Thonon - Pont de Marclaz</name>
        <description>Pont du Pamphiot</description>
        <styleUrl>#icon-1522-006064</styleUrl>
        <Point>
          <coordinates>
            6.447093,46.355287,0
          </coordinates>
        </Point>
      </Placemark>
      <Placemark>
        <name>Bons en Chablais - Gare</name>
        <styleUrl>#icon-1522-006064-nodesc</styleUrl>
        <Point>
          <coordinates>
            6.366401,46.26919,0
          </coordinates>
        </Point>
      </Placemark>
      <Placemark>
        <name>Evian - Gare SNCF</name>
        <description>Compter aussi vélos garés</description>
        <styleUrl>#icon-1522-006064</styleUrl>
        <Point>
          <coordinates>
            6.577775,46.3982,0
          </coordinates>
        </Point>
      </Placemark>
      <Placemark>
        <name>Marin / Thonon - Pont de Dranse</name>
        <description><![CDATA[Intersection route d'Evian et route de Thonon]]></description>
        <styleUrl>#icon-1522-006064</styleUrl>
        <Point>
          <coordinates>
            6.508729,46.382772,0
          </coordinates>
        </Point>
      </Placemark>
      <Placemark>
        <name>Perrignier - Gare SNCF</name>
        <description>Compter aussi les vélos qui sont dans les P</description>
        <styleUrl>#icon-1522-006064</styleUrl>
        <Point>
          <coordinates>
            6.425414,46.30332,0
          </coordinates>
        </Point>
      </Placemark>
      <Placemark>
        <name>Thonon - Lycée St Joseph</name>
        <description>Lycée Saint Joseph</description>
        <styleUrl>#icon-1522-7CB342</styleUrl>
        <Point>
          <coordinates>
            6.48482,46.37567,0
          </coordinates>
        </Point>
      </Placemark>
      <Placemark>
        <name>Thonon - Carrefour Libération</name>
        <styleUrl>#icon-1522-006064-nodesc</styleUrl>
        <Point>
          <coordinates>
            6.478514,46.366942,0
          </coordinates>
        </Point>
      </Placemark>
      <Placemark>
        <name>Thonon - Embarcadère </name>
        <description>Compter aussi les vélos garés dans le P dédié</description>
        <styleUrl>#icon-1522-006064</styleUrl>
        <Point>
          <coordinates>
            6.477144,46.375093,0
          </coordinates>
        </Point>
      </Placemark>
      <Placemark>
        <name>Thonon - Gare Place de Crête</name>
        <styleUrl>#icon-1522-006064-nodesc</styleUrl>
        <Point>
          <coordinates>
            6.482455,46.368321,0
          </coordinates>
        </Point>
      </Placemark>
      <Placemark>
        <name>Thonon - Gare Parvis nord</name>
        <styleUrl>#icon-1522-006064-nodesc</styleUrl>
        <Point>
          <coordinates>
            6.48157,46.369346,0
          </coordinates>
        </Point>
      </Placemark>
      <Placemark>
        <name>Veigy - Douane</name>
        <styleUrl>#icon-1522-006064-nodesc</styleUrl>
        <Point>
          <coordinates>
            6.242672,46.272886,0
          </coordinates>
        </Point>
      </Placemark>
      <Placemark>
        <name>Evian Impasse de la Guinguette</name>
        <styleUrl>#icon-1522-006064-nodesc</styleUrl>
        <Point>
          <coordinates>
            6.5855176,46.3993247,0
          </coordinates>
        </Point>
      </Placemark>
      <Placemark>
        <name>Evian Rond-point Dolfus</name>
        <styleUrl>#icon-1522-097138-nodesc</styleUrl>
        <Point>
          <coordinates>
            6.5769366,46.3987922,0
          </coordinates>
        </Point>
      </Placemark>
      <Placemark>
        <name>Evian Collège des Rives</name>
        <styleUrl>#icon-1522-7CB342-nodesc</styleUrl>
        <Point>
          <coordinates>
            6.5807063,46.3908395,0
          </coordinates>
        </Point>
      </Placemark>
      <Placemark>
        <name>Saint Paul en Chablais Collège du Gavot</name>
        <styleUrl>#icon-1522-7CB342-nodesc</styleUrl>
        <Point>
          <coordinates>
            6.6100181,46.3676343,0
          </coordinates>
        </Point>
      </Placemark>
      <Placemark>
        <name>Abondance Collège Sainte Croix des Neiges</name>
        <styleUrl>#icon-1522-7CB342-nodesc</styleUrl>
        <Point>
          <coordinates>
            6.7206891,46.2779369,0
          </coordinates>
        </Point>
      </Placemark>
      <Placemark>
        <name><![CDATA[Saint Jean d'Aulps Collège H. Corbet]]></name>
        <styleUrl>#icon-1522-7CB342-nodesc</styleUrl>
        <Point>
          <coordinates>
            6.6537369,46.2349394,0
          </coordinates>
        </Point>
      </Placemark>
      <Placemark>
        <name>Margencelle Collège Monod</name>
        <styleUrl>#icon-1522-7CB342-nodesc</styleUrl>
        <Point>
          <coordinates>
            6.4142384,46.3419961,0
          </coordinates>
        </Point>
      </Placemark>
      <Placemark>
        <name>Thonon Lycée de la Versoie</name>
        <styleUrl>#icon-1522-7CB342-nodesc</styleUrl>
        <Point>
          <coordinates>
            6.4710978,46.3648204,0
          </coordinates>
        </Point>
      </Placemark>
      <Placemark>
        <name>Thonon Collège JJ Rousseau</name>
        <styleUrl>#icon-1522-7CB342-nodesc</styleUrl>
        <Point>
          <coordinates>
            6.4712107,46.3673025,0
          </coordinates>
        </Point>
      </Placemark>
      <Placemark>
        <name>Thonon Collège Sacré Coeur</name>
        <styleUrl>#icon-1522-7CB342-nodesc</styleUrl>
        <Point>
          <coordinates>
            6.4802716,46.3667564,0
          </coordinates>
        </Point>
      </Placemark>
      <Placemark>
        <name><![CDATA[Thonon Collège Jeanne d'Arc]]></name>
        <styleUrl>#icon-1522-7CB342-nodesc</styleUrl>
        <Point>
          <coordinates>
            6.4841436,46.3731904,0
          </coordinates>
        </Point>
      </Placemark>
      <Placemark>
        <name>Thonon Rond-point Bonne Rencontre</name>
        <styleUrl>#icon-1522-006064-nodesc</styleUrl>
        <Point>
          <coordinates>
            6.4900676,46.3780712,0
          </coordinates>
        </Point>
      </Placemark>
      <Placemark>
        <name>Thonon Lycée hôtelier</name>
        <styleUrl>#icon-1522-7CB342-nodesc</styleUrl>
        <Point>
          <coordinates>
            6.4757743,46.3723728,0
          </coordinates>
        </Point>
      </Placemark>
      <Placemark>
        <name>Thonon Lycée des 3 vallées</name>
        <styleUrl>#icon-1522-7CB342-nodesc</styleUrl>
        <Point>
          <coordinates>
            6.4633397,46.3616424,0
          </coordinates>
        </Point>
      </Placemark>
      <Placemark>
        <name>Aubonne Collège St François</name>
        <styleUrl>#icon-1522-7CB342-nodesc</styleUrl>
        <Point>
          <coordinates>
            6.2857705,46.3006988,0
          </coordinates>
        </Point>
      </Placemark>
      <Placemark>
        <name>Bellevaux. Collège Notre-Dame</name>
        <description>Collège Notre-Dame</description>
        <styleUrl>#icon-1522-7CB342</styleUrl>
        <Point>
          <coordinates>
            6.53163,46.2578233,0
          </coordinates>
        </Point>
      </Placemark>
      <Placemark>
        <name>Bons en Chablais Collège François Mugnier</name>
        <description>Collège François Mugnier</description>
        <styleUrl>#icon-1522-7CB342</styleUrl>
        <Point>
          <coordinates>
            6.3626506,46.2654769,0
          </coordinates>
        </Point>
      </Placemark>
      <Placemark>
        <name>Douvaine. Collège du Bas Chablais</name>
        <description>Collège du Bas Chablais</description>
        <styleUrl>#icon-1522-7CB342</styleUrl>
        <Point>
          <coordinates>
            6.3076494,46.3045284,0
          </coordinates>
        </Point>
      </Placemark>
      <Placemark>
        <name>Evian. Lycée Anna de Noailles</name>
        <description>Lycée Anna de Noailles</description>
        <styleUrl>#icon-1522-7CB342</styleUrl>
        <Point>
          <coordinates>
            6.5794839,46.399553,0
          </coordinates>
        </Point>
      </Placemark>
      <Placemark>
        <name>Bons en Chablais Intersection av du Léman av des Voirons</name>
        <styleUrl>#icon-1522-006064-nodesc</styleUrl>
        <Point>
          <coordinates>
            6.3707562,46.2649712,0
          </coordinates>
        </Point>
      </Placemark>
      <Placemark>
        <name>Chens sur Léman Intersection D20 D25</name>
        <styleUrl>#icon-1522-006064-nodesc</styleUrl>
        <Point>
          <coordinates>
            6.266858,46.3158905,0
          </coordinates>
        </Point>
      </Placemark>
      <Placemark>
        <name>Douvaine Intersection Route de Génève Av des Voirons</name>
        <description>feu devant la pharmacie</description>
        <styleUrl>#icon-1522-006064</styleUrl>
        <Point>
          <coordinates>
            6.3013077,46.3058291,0
          </coordinates>
        </Point>
      </Placemark>
      <Placemark>
        <name>Thonon Intersection av Jules Ferry chemin Vieux</name>
        <styleUrl>#icon-1522-006064-nodesc</styleUrl>
        <Point>
          <coordinates>
            6.4850641,46.3737472,0
          </coordinates>
        </Point>
      </Placemark>
      <Placemark>
        <name>Thonon Rond point Place des Arts</name>
        <styleUrl>#icon-1522-097138-nodesc</styleUrl>
        <Point>
          <coordinates>
            6.481839,46.3710327,0
          </coordinates>
        </Point>
      </Placemark>
      <Placemark>
        <name>Thonon. Lycée des 3 vallées</name>
        <description>Comptage des vélos garés</description>
        <styleUrl>#icon-1522-7CB342</styleUrl>
        <Point>
          <coordinates>
            6.4842541,46.3683798,0
          </coordinates>
        </Point>
      </Placemark>
      <Placemark>
        <name>Thonon. Collège Champagne</name>
        <description>Comptabiliser le nombre de vélos et trottinettes garés</description>
        <styleUrl>#icon-1522-7CB342</styleUrl>
        <Point>
          <coordinates>
            6.4944736,46.379269,0
          </coordinates>
        </Point>
      </Placemark>
      <Placemark>
        <name><![CDATA[Thonon. Rd point dit "de la Mouche"]]></name>
        <description><![CDATA[Av de la Dranse, rte d'Armoy, Av des Vallées]]></description>
        <styleUrl>#icon-1522-006064</styleUrl>
        <Point>
          <coordinates>
            6.4912103,46.3706475,0
          </coordinates>
        </Point>
      </Placemark>
    </Folder>
    <Folder>
      <name>Association du Préau</name>
      <Placemark>
        <name>Sous Lathoy</name>
        <styleUrl>#icon-1522-F9A825-nodesc</styleUrl>
        <Point>
          <coordinates>
            6.1077346,46.1429496,0
          </coordinates>
        </Point>
      </Placemark>
      <Placemark>
        <name>chemin de la Chécande
</name>
        <styleUrl>#icon-1522-F9A825-nodesc</styleUrl>
        <Point>
          <coordinates>
            6.1196991,46.1426968,0
          </coordinates>
        </Point>
      </Placemark>
    </Folder>
    <Folder>
      <name>PRO VELO Genève</name>
      <Placemark>
        <name>BD Georges Favon</name>
        <styleUrl>#icon-1522-C2185B-labelson-nodesc</styleUrl>
        <Point>
          <coordinates>
            6.1401964,46.2023865,0
          </coordinates>
        </Point>
      </Placemark>
      <Placemark>
        <name>Voie verte Eaux-Vives</name>
        <styleUrl>#icon-1522-C2185B-labelson-nodesc</styleUrl>
        <Point>
          <coordinates>
            6.1710443,46.2034465,0
          </coordinates>
        </Point>
      </Placemark>
      <Placemark>
        <name>Rue de Lausanne</name>
        <description><![CDATA[pro velo <br>hauteur jardin Botanique]]></description>
        <styleUrl>#icon-1522-C2185B-labelson</styleUrl>
        <Point>
          <coordinates>
            6.1480769,46.2260737,0
          </coordinates>
        </Point>
      </Placemark>
      <Placemark>
        <name>Rue des Deux Ponts</name>
        <styleUrl>#icon-1522-C2185B-labelson-nodesc</styleUrl>
        <Point>
          <coordinates>
            6.1291691,46.2002071,0
          </coordinates>
        </Point>
      </Placemark>
      <Placemark>
        <name>Douane Veyrier</name>
        <description>TEST APPLICATION BENOIT</description>
        <styleUrl>#icon-1522-C2185B-labelson</styleUrl>
        <Point>
          <coordinates>
            6.188221,46.1665361,0
          </coordinates>
        </Point>
      </Placemark>
      <Placemark>
        <name>Voie verte Bel-Air</name>
        <description>3 personnes</description>
        <styleUrl>#icon-1522-C2185B-labelson</styleUrl>
        <Point>
          <coordinates>
            6.1937869,46.1969526,0
          </coordinates>
        </Point>
      </Placemark>
      <Placemark>
        <name>rue de la Servette 47</name>
        <styleUrl>#icon-1522-C2185B-labelson-nodesc</styleUrl>
        <Point>
          <coordinates>
            6.1353879,46.2109717,0
          </coordinates>
        </Point>
      </Placemark>
      <Placemark>
        <name>rue de Lyon </name>
        <description>Au niveau du parc Geisendorf TEST APPLICATION BENOIT</description>
        <styleUrl>#icon-1522-C2185B-labelson</styleUrl>
        <Point>
          <coordinates>
            6.1314692,46.2087665,0
          </coordinates>
        </Point>
      </Placemark>
      <Placemark>
        <name>Jardin Anglais 1 (Pont du Mt Blanc)</name>
        <description>A vérifier avec Noam et Thomas</description>
        <styleUrl>#icon-1522-C2185B-labelson</styleUrl>
        <Point>
          <coordinates>
            6.1484306,46.206207,0
          </coordinates>
        </Point>
      </Placemark>
      <Placemark>
        <name>Jardin Anglais 2 </name>
        <description>A vérifier avec Noam et Thomas</description>
        <styleUrl>#icon-1522-C2185B-labelson</styleUrl>
        <Point>
          <coordinates>
            6.151288,46.2039825,0
          </coordinates>
        </Point>
      </Placemark>
      <Placemark>
        <name>Avenue Wendt</name>
        <styleUrl>#icon-1522-C2185B-labelson-nodesc</styleUrl>
        <Point>
          <coordinates>
            6.1276753,46.2119399,0
          </coordinates>
        </Point>
      </Placemark>
    </Folder>
    <Folder>
      <name>Saint Julien</name>
      <Placemark>
        <name>Saint Julien - Chemin des Crottes</name>
        <styleUrl>#icon-1522-3949AB-nodesc</styleUrl>
        <Point>
          <coordinates>
            6.081698,46.150058,0
          </coordinates>
        </Point>
      </Placemark>
      <Placemark>
        <name>Saint Julien - Douane de Perly</name>
        <styleUrl>#icon-1522-3949AB-nodesc</styleUrl>
        <Point>
          <coordinates>
            6.090078,46.151679,0
          </coordinates>
        </Point>
      </Placemark>
      <Placemark>
        <name>Saint Julien - Stade de la Paguette</name>
        <styleUrl>#icon-1522-3949AB-nodesc</styleUrl>
        <Point>
          <coordinates>
            6.074859,46.148852,0
          </coordinates>
        </Point>
      </Placemark>
      <Placemark>
        <name>Saint Julien - Douane de Certoux</name>
        <styleUrl>#icon-1522-3949AB-nodesc</styleUrl>
        <Point>
          <coordinates>
            6.073528,46.149428,0
          </coordinates>
        </Point>
      </Placemark>
      <Placemark>
        <name>Viry - Soral 2</name>
        <styleUrl>#icon-1522-3949AB-nodesc</styleUrl>
        <Point>
          <coordinates>
            6.0351,46.134065,0
          </coordinates>
        </Point>
      </Placemark>
      <Placemark>
        <name>Viry - Malagny</name>
        <styleUrl>#icon-1522-3949AB-nodesc</styleUrl>
        <Point>
          <coordinates>
            6.009811,46.140071,0
          </coordinates>
        </Point>
      </Placemark>
      <Placemark>
        <name>Valleiry - La Joux</name>
        <styleUrl>#icon-1522-3949AB-nodesc</styleUrl>
        <Point>
          <coordinates>
            5.979567,46.128412,0
          </coordinates>
        </Point>
      </Placemark>
    </Folder>
    <Folder>
      <name>Salève Vivant</name>
      <Placemark>
        <name>Landecy</name>
        <styleUrl>#icon-1522-7CB342-nodesc</styleUrl>
        <Point>
          <coordinates>
            6.131991,46.1413547,0
          </coordinates>
        </Point>
      </Placemark>
      <Placemark>
        <name>Passage du marché</name>
        <styleUrl>#icon-1522-7CB342-nodesc</styleUrl>
        <Point>
          <coordinates>
            6.1367264,46.1427732,0
          </coordinates>
        </Point>
      </Placemark>
      <Placemark>
        <name>Croix-de-Rozon</name>
        <styleUrl>#icon-1522-7CB342-nodesc</styleUrl>
        <Point>
          <coordinates>
            6.1381708,46.1436146,0
          </coordinates>
        </Point>
      </Placemark>
      <Placemark>
        <name>Pierre-Grand</name>
        <styleUrl>#icon-1522-7CB342-nodesc</styleUrl>
        <Point>
          <coordinates>
            6.1497579,46.1505124,0
          </coordinates>
        </Point>
      </Placemark>
      <Placemark>
        <name>Troinex/Bossey</name>
        <styleUrl>#icon-1522-7CB342-nodesc</styleUrl>
        <Point>
          <coordinates>
            6.1613021,46.1544961,0
          </coordinates>
        </Point>
      </Placemark>
    </Folder>
    <Folder>
      <name>Pays Rochois NATENV</name>
      <Placemark>
        <name>St Pierre Dessy</name>
        <styleUrl>#icon-1522-9C27B0-nodesc</styleUrl>
        <Point>
          <coordinates>
            6.3815651,46.0593278,0
          </coordinates>
        </Point>
      </Placemark>
      <Placemark>
        <name>Bonneville, Prison Franchissement Borne Tucinges</name>
        <styleUrl>#icon-1522-9C27B0-nodesc</styleUrl>
        <Point>
          <coordinates>
            6.4000244,46.0792916,0
          </coordinates>
        </Point>
      </Placemark>
      <Placemark>
        <name>St Pierre M. Bricolage</name>
        <styleUrl>#icon-1522-9C27B0-nodesc</styleUrl>
        <Point>
          <coordinates>
            6.3767531,46.0718981,0
          </coordinates>
        </Point>
      </Placemark>
      <Placemark>
        <name>St Pierre/Bonneville Pont principal sur le Borne RN1203
</name>
        <styleUrl>#icon-1522-9C27B0-nodesc</styleUrl>
        <Point>
          <coordinates>
            6.3960046,46.0727672,0
          </coordinates>
        </Point>
      </Placemark>
      <Placemark>
        <name>La Roche, Biocoop
</name>
        <styleUrl>#icon-1522-9C27B0-nodesc</styleUrl>
        <Point>
          <coordinates>
            6.3109345,46.0659042,0
          </coordinates>
        </Point>
      </Placemark>
      <Placemark>
        <name>La Roche, La Poste
</name>
        <styleUrl>#icon-1522-9C27B0-nodesc</styleUrl>
        <Point>
          <coordinates>
            6.312697,46.0673913,0
          </coordinates>
        </Point>
      </Placemark>
      <Placemark>
        <name>La Roche, Gare</name>
        <styleUrl>#icon-1522-9C27B0-nodesc</styleUrl>
        <Point>
          <coordinates>
            6.3031194,46.0686163,0
          </coordinates>
        </Point>
      </Placemark>
      <Placemark>
        <name>La Roche Andrevetan/St Sixt</name>
        <styleUrl>#icon-1522-9C27B0-nodesc</styleUrl>
        <Point>
          <coordinates>
            6.3180038,46.0609773,0
          </coordinates>
        </Point>
      </Placemark>
      <Placemark>
        <name>Bonneville Pont Europe</name>
        <styleUrl>#icon-1522-9C27B0-nodesc</styleUrl>
        <Point>
          <coordinates>
            6.4062555,46.0759431,0
          </coordinates>
        </Point>
      </Placemark>
      <Placemark>
        <name>Ayze Piste cyclable Bonneville après piscine</name>
        <styleUrl>#icon-1522-9C27B0-nodesc</styleUrl>
        <Point>
          <coordinates>
            6.4264838,46.0782195,0
          </coordinates>
        </Point>
      </Placemark>
      <Placemark>
        <name>Chloro Soly Bonne </name>
        <description>46.161829, 6.316651</description>
        <styleUrl>#icon-1522-AFB42B</styleUrl>
        <Point>
          <coordinates>
            6.316651,46.161829,0
          </coordinates>
        </Point>
      </Placemark>
      <Placemark>
        <name>Chloro Pt Savoyard Fillinges</name>
        <description>46.16185753320907, 6.352769890251818</description>
        <styleUrl>#icon-1522-AFB42B</styleUrl>
        <Point>
          <coordinates>
            6.35276989025182,46.1618575332091,0
          </coordinates>
        </Point>
      </Placemark>
      <Placemark>
        <name>Chloro Proxivélo Pont Fillinges</name>
        <description>46.163215, 6.351672</description>
        <styleUrl>#icon-1522-AFB42B</styleUrl>
        <Point>
          <coordinates>
            6.351672,46.1630961,0
          </coordinates>
        </Point>
      </Placemark>
      <Placemark>
        <name>Chloro Arpigny Fillinges</name>
        <description>46.151740, 6.341957</description>
        <styleUrl>#icon-1522-AFB42B</styleUrl>
        <Point>
          <coordinates>
            6.3421287,46.1516211,0
          </coordinates>
        </Point>
      </Placemark>
    </Folder>
    <Folder>
      <name><![CDATA[Cycle sur Léman (Chens) + Roule & Co + Vélopito + UPCluses]]></name>
      <Placemark>
        <name>Douane Chens-Hermance</name>
        <styleUrl>#icon-1522-673AB7-nodesc</styleUrl>
        <Point>
          <coordinates>
            6.2479383,46.3029176,0
          </coordinates>
        </Point>
      </Placemark>
      <Placemark>
        <name>Passerelle de Messy (Cluses)</name>
        <description>UPCluses : comptage à hauteur de la passerelle et de la voie verte.</description>
        <styleUrl>#icon-1522-AFB42B</styleUrl>
        <Point>
          <coordinates>
            6.5677075,46.0649163,0
          </coordinates>
        </Point>
      </Placemark>
      <Placemark>
        <name>Vernaies RD</name>
        <description>#75 sur app</description>
        <styleUrl>#icon-1522-C2185B</styleUrl>
        <Point>
          <coordinates>
            6.3168812,45.8858827,0
          </coordinates>
        </Point>
      </Placemark>
      <Placemark>
        <name>Ehpad</name>
        <description>#79 sur app</description>
        <styleUrl>#icon-1522-C2185B</styleUrl>
        <Point>
          <coordinates>
            6.3218111,45.8784779,0
          </coordinates>
        </Point>
      </Placemark>
      <Placemark>
        <name>01 - Favre/Sommeiller</name>
        <styleUrl>#icon-1522-0288D1-nodesc</styleUrl>
        <Point>
          <coordinates>
            6.1265996,45.9024651,0
          </coordinates>
        </Point>
      </Placemark>
      <Placemark>
        <name>02 - Avenue de Genève Nord </name>
        <description>Devant Mc Do au croisement avec la piste cyclable qui traverse devant Carrefour</description>
        <styleUrl>#icon-1522-0288D1</styleUrl>
        <Point>
          <coordinates>
            6.1240062,45.9258584,0
          </coordinates>
        </Point>
      </Placemark>
      <Placemark>
        <name>03 - Marquisats</name>
        <styleUrl>#icon-1522-0288D1-nodesc</styleUrl>
        <Point>
          <coordinates>
            6.1366181,45.8930686,0
          </coordinates>
        </Point>
      </Placemark>
      <Placemark>
        <name>04 - Double RP Avenue de Cran</name>
        <styleUrl>#icon-1522-0288D1-nodesc</styleUrl>
        <Point>
          <coordinates>
            6.1146729,45.906363,0
          </coordinates>
        </Point>
      </Placemark>
      <Placemark>
        <name>05 - RP de Vignières</name>
        <description><![CDATA[le 1er compteur compte les entrées provenant de l'avenue des Carrés et de l'esplanade UNIQUEMENT LES ENTREES SUR LE ROND-POINT, PAS LES SORTIES !)]]></description>
        <styleUrl>#icon-1522-0288D1</styleUrl>
        <Point>
          <coordinates>
            6.1464756,45.9148425,0
          </coordinates>
        </Point>
      </Placemark>
      <Placemark>
        <name>05 bis - RP de Vignières</name>
        <description><![CDATA[Le 2nd compteur compte les entrées provenant de l'allée Jean Monnet, des rues Jean Mermoz, du Pré de la Salle et du capitaine Baud (UNIQUEMENT LES ENTRÉES SUR LE RD POINT, PAS LES SORTIES !)]]></description>
        <styleUrl>#icon-1594-0288D1</styleUrl>
        <Point>
          <coordinates>
            6.1473066,45.9156302,0
          </coordinates>
        </Point>
      </Placemark>
      <Placemark>
        <name>06 - Autopont avenue du Rhône</name>
        <description><![CDATA[Sous l'autopont au croisement des pistes cyclables]]></description>
        <styleUrl>#icon-1594-0288D1</styleUrl>
        <Point>
          <coordinates>
            6.1112241,45.9027154,0
          </coordinates>
        </Point>
      </Placemark>
      <Placemark>
        <name>07 - Souterrain Rocade/Gambetta</name>
        <description>Celui qui passe sous la voie ferrée</description>
        <styleUrl>#icon-1522-0288D1</styleUrl>
        <Point>
          <coordinates>
            6.1249448,45.9118021,0
          </coordinates>
        </Point>
      </Placemark>
      <Placemark>
        <name>08 - RP Maréchal Juin</name>
        <description>Grand Frais</description>
        <styleUrl>#icon-1594-0288D1</styleUrl>
        <Point>
          <coordinates>
            6.1145899,45.8899134,0
          </coordinates>
        </Point>
      </Placemark>
      <Placemark>
        <name>09 - Pont de Tasset</name>
        <styleUrl>#icon-1522-0288D1-nodesc</styleUrl>
        <Point>
          <coordinates>
            6.0968032,45.9091131,0
          </coordinates>
        </Point>
      </Placemark>
      <Placemark>
        <name>10 - RP de la Croisée</name>
        <description>En contrebas de Cocktail Scandinave</description>
        <styleUrl>#icon-1594-0288D1</styleUrl>
        <Point>
          <coordinates>
            6.1114979,45.8958532,0
          </coordinates>
        </Point>
      </Placemark>
      <Placemark>
        <name>11 - Viaduc de Brassilly</name>
        <styleUrl>#icon-1594-0288D1-nodesc</styleUrl>
        <Point>
          <coordinates>
            6.0931413,45.9057609,0
          </coordinates>
        </Point>
      </Placemark>
      <Placemark>
        <name>12 - Petit port</name>
        <styleUrl>#icon-1594-0288D1-nodesc</styleUrl>
        <Point>
          <coordinates>
            6.158369,45.9055566,0
          </coordinates>
        </Point>
      </Placemark>
      <Placemark>
        <name>13 - Creusettes (Poisy)</name>
        <styleUrl>#icon-1594-0288D1-nodesc</styleUrl>
        <Point>
          <coordinates>
            6.0832552,45.9197023,0
          </coordinates>
        </Point>
      </Placemark>
      <Placemark>
        <name>14 - Auriol/Périmètre</name>
        <styleUrl>#icon-1594-0288D1-nodesc</styleUrl>
        <Point>
          <coordinates>
            6.1272856,45.9244246,0
          </coordinates>
        </Point>
      </Placemark>
      <Placemark>
        <name>15 - Parc des Glaisins</name>
        <styleUrl>#icon-1594-0288D1-nodesc</styleUrl>
        <Point>
          <coordinates>
            6.1582181,45.9245778,0
          </coordinates>
        </Point>
      </Placemark>
      <Placemark>
        <name>16 - Metz-Tessy-Epagny D908B</name>
        <styleUrl>#icon-1522-0288D1-nodesc</styleUrl>
        <Point>
          <coordinates>
            6.1107991,45.9350838,0
          </coordinates>
        </Point>
      </Placemark>
    </Folder>
  </Document>
</kml>
